KAITUO 1B               
1 40912U 15049P   18032.74373265  .00001070  00000-0  55130-4 0  9992
2 40912  97.4504  42.0144 0017150 119.3372 327.4852 15.18413071131111
TIANWANG 1C (TW-1C)     
1 40926U 15051B   18033.80914877  .00005876  00000-0  11842-3 0  9997
2 40926  97.2017  76.8524 0012152  57.2359  31.1185 15.46868165132525
TIANWANG 1B (TW-1B)     
1 40927U 15051C   18033.79041833  .00005538  00000-0  11629-3 0  9997
2 40927  97.2106  76.7399 0012431  66.5917  23.3326 15.45689302132441
TIANWANG 1A (TW-1A)     
1 40928U 15051D   18033.81501337  .00002355  00000-0  65200-4 0  9990
2 40928  97.2019  70.4079 0014354  87.6667 359.4066 15.37888912132121
LAPAN-A2 (IO-86)        
1 40931U 15052B   18032.36058954  .00000757  00000-0  16439-4 0  9990
2 40931   5.9988  38.5755 0013181 249.6522 110.2637 14.76563983126893
LQSAT                   
1 40958U 15057A   18033.19140877 -.00000014  00000-0  55990-5 0  9995
2 40958  97.9549 109.2124 0019484  52.5073 307.7918 14.73013462124977
CHUBUSAT-2              
1 41338U 16012B   18033.48994611  .00000311  00000-0  17570-4 0  9995
2 41338  31.0038  89.3963 0013832 179.6620 180.4026 14.99912932107594
CHUBUSAT-3              
1 41339U 16012C   18033.45419253  .00000252  00000-0  12870-4 0  9999
2 41339  31.0086  88.4150 0013798 187.0139 173.0299 15.00104460107575
OUFTI-1                 
1 41458U 16025C   18033.08764017  .00002037  00000-0  11093-3 0  9993
2 41458  98.1562  88.6306 0170416 240.1872 118.2331 15.04211319 97124
E-ST@R-II               
1 41459U 16025D   18032.87232010  .00001106  00000-0  62849-4 0  9995
2 41459  98.1565  88.2950 0170759 241.4480 116.9433 15.03976941 97089
AAUSAT 4                
1 41460U 16025E   18033.83628921  .00001590  00000-0  87512-4 0  9995
2 41460  98.1473  89.6179 0162651 235.1704 123.4140 15.05228113 97270
NUSAT 1 (LO-87)         
1 41557U 16033B   18033.80020790  .00001064  00000-0  41694-4 0  9995
2 41557  97.4456 118.2357 0012286 272.9764  87.0069 15.27958981 93638
BEESAT-4                
1 41619U 16040W   18033.15255783  .00001090  00000-0  51183-4 0  9995
2 41619  97.4335  98.0757 0011302 351.8820   8.2232 15.21708327 77551
PRATHAM                 
1 41783U 16059A   18033.73606988  .00000041  00000-0  17387-4 0  9991
2 41783  98.1369  97.3439 0034245 155.8725 204.4090 14.62897844 72301
ALSAT 1N                
1 41789U 16059G   18033.80623368  .00000059  00000-0  20325-4 0  9991
2 41789  98.1370  98.3644 0029097 147.7515 212.5463 14.64123594 72359
NAYIF-1 (EO-88)         
1 42017U 17008BX  18032.92405519  .00001215  00000-0  53099-4 0  9998
2 42017  97.4663  98.7008 0007825 127.8919 232.3027 15.23995924 53468
LILACSAT-1              
1 42725U 98067ME  18033.80614658  .00015642  00000-0  17155-3 0  9993
2 42725  51.6384 320.3249 0006083  91.7773 268.3919 15.63417883 39469
MAX VALIER SAT          
1 42778U 17036P   18033.46007680  .00000783  00000-0  38361-4 0  9994
2 42778  97.4225  95.3005 0012987 174.5926 185.5452 15.21010149 34025
FOX-1B (AO-91)          
1 43017U 17073E   18032.81041506  .00000949  00000-0  80281-4 0  9997
2 43017  97.6990 329.6730 0260387 352.6153   7.1253 14.77875809 11116
FOX-1D (AO-92)          
1 43137U 18004AC  18033.36990391  .00000845  00000-0  39681-4 0  9994
2 43137  97.5527  95.5934 0008959 203.3633 156.7197 15.22399850  3194
